<?xml version="1.0" encoding="UTF-8"?>
<gpx version="1.1" creator="Cyclemeter (sample)" xmlns="http://www.topografix.com/GPX/1/1">
<trk><name>Sample: Spooner Lake to Marlette Lake</name><trkseg>
<trkpt lat="39.106195" lon="-119.916690"><ele>2131.7</ele><time>2026-09-27T15:10:00Z</time></trkpt>
<trkpt lat="39.106417" lon="-119.916793"><ele>2133.6</ele><time>2026-09-27T15:10:09Z</time></trkpt>
<trkpt lat="39.106667" lon="-119.916872"><ele>2135.0</ele><time>2026-09-27T15:10:19Z</time></trkpt>
<trkpt lat="39.106873" lon="-119.916961"><ele>2135.3</ele><time>2026-09-27T15:10:29Z</time></trkpt>
<trkpt lat="39.107058" lon="-119.917089"><ele>2136.0</ele><time>2026-09-27T15:10:40Z</time></trkpt>
<trkpt lat="39.107306" lon="-119.917104"><ele>2139.0</ele><time>2026-09-27T15:10:48Z</time></trkpt>
<trkpt lat="39.107545" lon="-119.917223"><ele>2138.8</ele><time>2026-09-27T15:10:59Z</time></trkpt>
<trkpt lat="39.107796" lon="-119.917344"><ele>2140.0</ele><time>2026-09-27T15:11:10Z</time></trkpt>
<trkpt lat="39.107978" lon="-119.917410"><ele>2142.9</ele><time>2026-09-27T15:11:21Z</time></trkpt>
<trkpt lat="39.108213" lon="-119.917512"><ele>2143.9</ele><time>2026-09-27T15:11:30Z</time></trkpt>
<trkpt lat="39.108415" lon="-119.917580"><ele>2145.2</ele><time>2026-09-27T15:11:39Z</time></trkpt>
<trkpt lat="39.108624" lon="-119.917695"><ele>2145.3</ele><time>2026-09-27T15:11:50Z</time></trkpt>
<trkpt lat="39.108875" lon="-119.917778"><ele>2147.8</ele><time>2026-09-27T15:11:59Z</time></trkpt>
<trkpt lat="39.109099" lon="-119.917849"><ele>2147.8</ele><time>2026-09-27T15:12:09Z</time></trkpt>
<trkpt lat="39.109352" lon="-119.917931"><ele>2149.9</ele><time>2026-09-27T15:12:19Z</time></trkpt>
<trkpt lat="39.109520" lon="-119.918039"><ele>2152.7</ele><time>2026-09-27T15:12:27Z</time></trkpt>
<trkpt lat="39.109750" lon="-119.918126"><ele>2153.9</ele><time>2026-09-27T15:12:36Z</time></trkpt>
<trkpt lat="39.109952" lon="-119.918207"><ele>2153.2</ele><time>2026-09-27T15:12:46Z</time></trkpt>
<trkpt lat="39.110177" lon="-119.918343"><ele>2155.3</ele><time>2026-09-27T15:12:55Z</time></trkpt>
<trkpt lat="39.110424" lon="-119.918383"><ele>2155.9</ele><time>2026-09-27T15:13:06Z</time></trkpt>
<trkpt lat="39.110666" lon="-119.918461"><ele>2159.3</ele><time>2026-09-27T15:13:16Z</time></trkpt>
<trkpt lat="39.110897" lon="-119.918557"><ele>2159.8</ele><time>2026-09-27T15:13:27Z</time></trkpt>
<trkpt lat="39.111127" lon="-119.918636"><ele>2157.6</ele><time>2026-09-27T15:13:36Z</time></trkpt>
<trkpt lat="39.111318" lon="-119.918724"><ele>2160.5</ele><time>2026-09-27T15:13:44Z</time></trkpt>
<trkpt lat="39.111528" lon="-119.918791"><ele>2163.1</ele><time>2026-09-27T15:13:54Z</time></trkpt>
<trkpt lat="39.111774" lon="-119.918910"><ele>2164.6</ele><time>2026-09-27T15:14:06Z</time></trkpt>
<trkpt lat="39.111987" lon="-119.919008"><ele>2166.3</ele><time>2026-09-27T15:14:16Z</time></trkpt>
<trkpt lat="39.112220" lon="-119.919131"><ele>2165.4</ele><time>2026-09-27T15:14:30Z</time></trkpt>
<trkpt lat="39.112411" lon="-119.919173"><ele>2168.0</ele><time>2026-09-27T15:14:42Z</time></trkpt>
<trkpt lat="39.112653" lon="-119.919248"><ele>2167.4</ele><time>2026-09-27T15:14:53Z</time></trkpt>
<trkpt lat="39.112862" lon="-119.919329"><ele>2172.7</ele><time>2026-09-27T15:15:04Z</time></trkpt>
<trkpt lat="39.113115" lon="-119.919414"><ele>2173.3</ele><time>2026-09-27T15:15:22Z</time></trkpt>
<trkpt lat="39.113314" lon="-119.919507"><ele>2175.2</ele><time>2026-09-27T15:15:38Z</time></trkpt>
<trkpt lat="39.113537" lon="-119.919601"><ele>2176.3</ele><time>2026-09-27T15:15:55Z</time></trkpt>
<trkpt lat="39.113748" lon="-119.919690"><ele>2177.7</ele><time>2026-09-27T15:16:06Z</time></trkpt>
<trkpt lat="39.113994" lon="-119.919740"><ele>2180.9</ele><time>2026-09-27T15:16:21Z</time></trkpt>
<trkpt lat="39.114173" lon="-119.919849"><ele>2181.3</ele><time>2026-09-27T15:16:31Z</time></trkpt>
<trkpt lat="39.114419" lon="-119.919943"><ele>2184.7</ele><time>2026-09-27T15:16:45Z</time></trkpt>
<trkpt lat="39.114683" lon="-119.920017"><ele>2183.4</ele><time>2026-09-27T15:17:02Z</time></trkpt>
<trkpt lat="39.114852" lon="-119.920086"><ele>2185.9</ele><time>2026-09-27T15:17:15Z</time></trkpt>
<trkpt lat="39.115093" lon="-119.920218"><ele>2187.1</ele><time>2026-09-27T15:17:25Z</time></trkpt>
<trkpt lat="39.115312" lon="-119.920277"><ele>2187.3</ele><time>2026-09-27T15:17:42Z</time></trkpt>
<trkpt lat="39.115505" lon="-119.920353"><ele>2191.7</ele><time>2026-09-27T15:17:53Z</time></trkpt>
<trkpt lat="39.115678" lon="-119.920438"><ele>2189.9</ele><time>2026-09-27T15:18:04Z</time></trkpt>
<trkpt lat="39.115955" lon="-119.920513"><ele>2193.4</ele><time>2026-09-27T15:18:15Z</time></trkpt>
<trkpt lat="39.116175" lon="-119.920625"><ele>2196.0</ele><time>2026-09-27T15:18:34Z</time></trkpt>
<trkpt lat="39.116411" lon="-119.920713"><ele>2200.0</ele><time>2026-09-27T15:18:46Z</time></trkpt>
<trkpt lat="39.116587" lon="-119.920802"><ele>2198.9</ele><time>2026-09-27T15:18:56Z</time></trkpt>
<trkpt lat="39.116834" lon="-119.920865"><ele>2198.0</ele><time>2026-09-27T15:19:12Z</time></trkpt>
<trkpt lat="39.117019" lon="-119.920992"><ele>2201.7</ele><time>2026-09-27T15:19:23Z</time></trkpt>
<trkpt lat="39.117294" lon="-119.921034"><ele>2204.8</ele><time>2026-09-27T15:19:34Z</time></trkpt>
<trkpt lat="39.117469" lon="-119.921147"><ele>2204.7</ele><time>2026-09-27T15:19:46Z</time></trkpt>
<trkpt lat="39.117690" lon="-119.921188"><ele>2207.4</ele><time>2026-09-27T15:19:57Z</time></trkpt>
<trkpt lat="39.117923" lon="-119.921275"><ele>2207.2</ele><time>2026-09-27T15:20:11Z</time></trkpt>
<trkpt lat="39.118154" lon="-119.921382"><ele>2211.2</ele><time>2026-09-27T15:20:27Z</time></trkpt>
<trkpt lat="39.118345" lon="-119.921450"><ele>2208.0</ele><time>2026-09-27T15:20:44Z</time></trkpt>
<trkpt lat="39.118570" lon="-119.921541"><ele>2212.7</ele><time>2026-09-27T15:20:56Z</time></trkpt>
<trkpt lat="39.118807" lon="-119.921661"><ele>2213.0</ele><time>2026-09-27T15:21:07Z</time></trkpt>
<trkpt lat="39.118987" lon="-119.921715"><ele>2216.1</ele><time>2026-09-27T15:21:17Z</time></trkpt>
<trkpt lat="39.119232" lon="-119.921821"><ele>2218.2</ele><time>2026-09-27T15:21:33Z</time></trkpt>
<trkpt lat="39.119462" lon="-119.921882"><ele>2220.7</ele><time>2026-09-27T15:21:45Z</time></trkpt>
<trkpt lat="39.119715" lon="-119.922013"><ele>2220.9</ele><time>2026-09-27T15:22:00Z</time></trkpt>
<trkpt lat="39.119863" lon="-119.922052"><ele>2220.6</ele><time>2026-09-27T15:22:10Z</time></trkpt>
<trkpt lat="39.120122" lon="-119.922137"><ele>2223.8</ele><time>2026-09-27T15:22:23Z</time></trkpt>
<trkpt lat="39.120377" lon="-119.922243"><ele>2225.9</ele><time>2026-09-27T15:22:40Z</time></trkpt>
<trkpt lat="39.120581" lon="-119.922346"><ele>2226.5</ele><time>2026-09-27T15:22:51Z</time></trkpt>
<trkpt lat="39.120748" lon="-119.922427"><ele>2229.6</ele><time>2026-09-27T15:23:04Z</time></trkpt>
<trkpt lat="39.121016" lon="-119.922506"><ele>2232.0</ele><time>2026-09-27T15:23:20Z</time></trkpt>
<trkpt lat="39.121195" lon="-119.922465"><ele>2233.0</ele><time>2026-09-27T15:23:35Z</time></trkpt>
<trkpt lat="39.121441" lon="-119.922429"><ele>2233.8</ele><time>2026-09-27T15:23:49Z</time></trkpt>
<trkpt lat="39.121655" lon="-119.922350"><ele>2232.9</ele><time>2026-09-27T15:24:02Z</time></trkpt>
<trkpt lat="39.121911" lon="-119.922275"><ele>2235.6</ele><time>2026-09-27T15:24:15Z</time></trkpt>
<trkpt lat="39.122086" lon="-119.922279"><ele>2239.9</ele><time>2026-09-27T15:24:33Z</time></trkpt>
<trkpt lat="39.122348" lon="-119.922222"><ele>2241.6</ele><time>2026-09-27T15:24:53Z</time></trkpt>
<trkpt lat="39.122610" lon="-119.922153"><ele>2243.9</ele><time>2026-09-27T15:25:11Z</time></trkpt>
<trkpt lat="39.122768" lon="-119.922125"><ele>2243.5</ele><time>2026-09-27T15:25:31Z</time></trkpt>
<trkpt lat="39.123075" lon="-119.922107"><ele>2247.7</ele><time>2026-09-27T15:25:50Z</time></trkpt>
<trkpt lat="39.123310" lon="-119.922084"><ele>2249.3</ele><time>2026-09-27T15:26:07Z</time></trkpt>
<trkpt lat="39.123499" lon="-119.921958"><ele>2249.9</ele><time>2026-09-27T15:26:19Z</time></trkpt>
<trkpt lat="39.123713" lon="-119.921942"><ele>2254.6</ele><time>2026-09-27T15:26:38Z</time></trkpt>
<trkpt lat="39.123920" lon="-119.921888"><ele>2255.8</ele><time>2026-09-27T15:27:00Z</time></trkpt>
<trkpt lat="39.124169" lon="-119.921841"><ele>2256.6</ele><time>2026-09-27T15:27:14Z</time></trkpt>
<trkpt lat="39.124406" lon="-119.921838"><ele>2259.3</ele><time>2026-09-27T15:27:25Z</time></trkpt>
<trkpt lat="39.124629" lon="-119.921735"><ele>2259.5</ele><time>2026-09-27T15:27:47Z</time></trkpt>
<trkpt lat="39.124806" lon="-119.921670"><ele>2262.8</ele><time>2026-09-27T15:28:06Z</time></trkpt>
<trkpt lat="39.125057" lon="-119.921620"><ele>2263.5</ele><time>2026-09-27T15:28:26Z</time></trkpt>
<trkpt lat="39.125303" lon="-119.921592"><ele>2265.7</ele><time>2026-09-27T15:28:39Z</time></trkpt>
<trkpt lat="39.125504" lon="-119.921521"><ele>2267.5</ele><time>2026-09-27T15:29:00Z</time></trkpt>
<trkpt lat="39.125784" lon="-119.921480"><ele>2272.2</ele><time>2026-09-27T15:29:13Z</time></trkpt>
<trkpt lat="39.125992" lon="-119.921466"><ele>2273.2</ele><time>2026-09-27T15:29:28Z</time></trkpt>
<trkpt lat="39.126201" lon="-119.921394"><ele>2272.9</ele><time>2026-09-27T15:29:40Z</time></trkpt>
<trkpt lat="39.126426" lon="-119.921354"><ele>2276.0</ele><time>2026-09-27T15:30:00Z</time></trkpt>
<trkpt lat="39.126648" lon="-119.921294"><ele>2277.7</ele><time>2026-09-27T15:30:19Z</time></trkpt>
<trkpt lat="39.126864" lon="-119.921254"><ele>2280.5</ele><time>2026-09-27T15:30:34Z</time></trkpt>
<trkpt lat="39.127107" lon="-119.921211"><ele>2281.3</ele><time>2026-09-27T15:30:56Z</time></trkpt>
<trkpt lat="39.127308" lon="-119.921213"><ele>2283.8</ele><time>2026-09-27T15:31:15Z</time></trkpt>
<trkpt lat="39.127568" lon="-119.921138"><ele>2283.0</ele><time>2026-09-27T15:31:35Z</time></trkpt>
<trkpt lat="39.127787" lon="-119.921102"><ele>2287.1</ele><time>2026-09-27T15:31:51Z</time></trkpt>
<trkpt lat="39.127991" lon="-119.920992"><ele>2288.6</ele><time>2026-09-27T15:32:03Z</time></trkpt>
<trkpt lat="39.128211" lon="-119.920980"><ele>2291.3</ele><time>2026-09-27T15:32:19Z</time></trkpt>
<trkpt lat="39.128494" lon="-119.920914"><ele>2292.8</ele><time>2026-09-27T15:32:39Z</time></trkpt>
<trkpt lat="39.128702" lon="-119.920859"><ele>2292.7</ele><time>2026-09-27T15:32:59Z</time></trkpt>
<trkpt lat="39.128914" lon="-119.920819"><ele>2296.3</ele><time>2026-09-27T15:33:13Z</time></trkpt>
<trkpt lat="39.129164" lon="-119.920800"><ele>2298.9</ele><time>2026-09-27T15:33:32Z</time></trkpt>
<trkpt lat="39.129394" lon="-119.920742"><ele>2300.6</ele><time>2026-09-27T15:33:44Z</time></trkpt>
<trkpt lat="39.129647" lon="-119.920691"><ele>2302.4</ele><time>2026-09-27T15:34:01Z</time></trkpt>
<trkpt lat="39.129798" lon="-119.920639"><ele>2304.7</ele><time>2026-09-27T15:34:17Z</time></trkpt>
<trkpt lat="39.130070" lon="-119.920596"><ele>2306.7</ele><time>2026-09-27T15:34:40Z</time></trkpt>
<trkpt lat="39.130278" lon="-119.920547"><ele>2307.8</ele><time>2026-09-27T15:34:56Z</time></trkpt>
<trkpt lat="39.130514" lon="-119.920533"><ele>2309.6</ele><time>2026-09-27T15:35:10Z</time></trkpt>
<trkpt lat="39.130698" lon="-119.920421"><ele>2310.7</ele><time>2026-09-27T15:35:22Z</time></trkpt>
<trkpt lat="39.130924" lon="-119.920242"><ele>2314.6</ele><time>2026-09-27T15:35:31Z</time></trkpt>
<trkpt lat="39.131156" lon="-119.920131"><ele>2315.9</ele><time>2026-09-27T15:35:43Z</time></trkpt>
<trkpt lat="39.131308" lon="-119.920018"><ele>2315.5</ele><time>2026-09-27T15:35:54Z</time></trkpt>
<trkpt lat="39.131495" lon="-119.919903"><ele>2318.4</ele><time>2026-09-27T15:36:07Z</time></trkpt>
<trkpt lat="39.131704" lon="-119.919759"><ele>2318.0</ele><time>2026-09-27T15:36:19Z</time></trkpt>
<trkpt lat="39.131946" lon="-119.919658"><ele>2321.4</ele><time>2026-09-27T15:36:30Z</time></trkpt>
<trkpt lat="39.132166" lon="-119.919530"><ele>2320.9</ele><time>2026-09-27T15:36:47Z</time></trkpt>
<trkpt lat="39.132337" lon="-119.919445"><ele>2323.6</ele><time>2026-09-27T15:36:58Z</time></trkpt>
<trkpt lat="39.132565" lon="-119.919305"><ele>2323.8</ele><time>2026-09-27T15:37:09Z</time></trkpt>
<trkpt lat="39.132768" lon="-119.919191"><ele>2326.7</ele><time>2026-09-27T15:37:22Z</time></trkpt>
<trkpt lat="39.132963" lon="-119.919068"><ele>2330.2</ele><time>2026-09-27T15:37:38Z</time></trkpt>
<trkpt lat="39.133181" lon="-119.919000"><ele>2328.6</ele><time>2026-09-27T15:37:53Z</time></trkpt>
<trkpt lat="39.133392" lon="-119.918840"><ele>2329.4</ele><time>2026-09-27T15:38:06Z</time></trkpt>
<trkpt lat="39.133593" lon="-119.918713"><ele>2333.4</ele><time>2026-09-27T15:38:18Z</time></trkpt>
<trkpt lat="39.133817" lon="-119.918596"><ele>2335.8</ele><time>2026-09-27T15:38:29Z</time></trkpt>
<trkpt lat="39.134026" lon="-119.918462"><ele>2335.0</ele><time>2026-09-27T15:38:47Z</time></trkpt>
<trkpt lat="39.134190" lon="-119.918354"><ele>2338.8</ele><time>2026-09-27T15:38:58Z</time></trkpt>
<trkpt lat="39.134414" lon="-119.918226"><ele>2339.5</ele><time>2026-09-27T15:39:11Z</time></trkpt>
<trkpt lat="39.134622" lon="-119.918105"><ele>2340.3</ele><time>2026-09-27T15:39:21Z</time></trkpt>
<trkpt lat="39.134859" lon="-119.918037"><ele>2341.1</ele><time>2026-09-27T15:39:34Z</time></trkpt>
<trkpt lat="39.135048" lon="-119.917857"><ele>2343.2</ele><time>2026-09-27T15:39:49Z</time></trkpt>
<trkpt lat="39.135265" lon="-119.917731"><ele>2345.6</ele><time>2026-09-27T15:40:01Z</time></trkpt>
<trkpt lat="39.135453" lon="-119.917672"><ele>2346.4</ele><time>2026-09-27T15:40:12Z</time></trkpt>
<trkpt lat="39.135668" lon="-119.917468"><ele>2347.8</ele><time>2026-09-27T15:40:23Z</time></trkpt>
<trkpt lat="39.135870" lon="-119.917413"><ele>2349.6</ele><time>2026-09-27T15:40:41Z</time></trkpt>
<trkpt lat="39.136088" lon="-119.917258"><ele>2350.2</ele><time>2026-09-27T15:40:55Z</time></trkpt>
<trkpt lat="39.136318" lon="-119.917152"><ele>2350.3</ele><time>2026-09-27T15:41:12Z</time></trkpt>
<trkpt lat="39.136517" lon="-119.917047"><ele>2354.9</ele><time>2026-09-27T15:41:29Z</time></trkpt>
<trkpt lat="39.136686" lon="-119.916970"><ele>2358.4</ele><time>2026-09-27T15:41:42Z</time></trkpt>
<trkpt lat="39.136889" lon="-119.916777"><ele>2357.1</ele><time>2026-09-27T15:41:54Z</time></trkpt>
<trkpt lat="39.137115" lon="-119.916666"><ele>2357.8</ele><time>2026-09-27T15:42:10Z</time></trkpt>
<trkpt lat="39.137315" lon="-119.916539"><ele>2359.4</ele><time>2026-09-27T15:42:21Z</time></trkpt>
<trkpt lat="39.137521" lon="-119.916395"><ele>2361.1</ele><time>2026-09-27T15:42:34Z</time></trkpt>
<trkpt lat="39.137698" lon="-119.916348"><ele>2364.7</ele><time>2026-09-27T15:42:45Z</time></trkpt>
<trkpt lat="39.137926" lon="-119.916165"><ele>2365.4</ele><time>2026-09-27T15:42:56Z</time></trkpt>
<trkpt lat="39.138142" lon="-119.916105"><ele>2366.2</ele><time>2026-09-27T15:43:09Z</time></trkpt>
<trkpt lat="39.138354" lon="-119.915941"><ele>2368.8</ele><time>2026-09-27T15:43:19Z</time></trkpt>
<trkpt lat="39.138545" lon="-119.915806"><ele>2370.3</ele><time>2026-09-27T15:43:33Z</time></trkpt>
<trkpt lat="39.138759" lon="-119.915725"><ele>2372.3</ele><time>2026-09-27T15:43:45Z</time></trkpt>
<trkpt lat="39.138973" lon="-119.915588"><ele>2373.1</ele><time>2026-09-27T15:43:58Z</time></trkpt>
<trkpt lat="39.139216" lon="-119.915470"><ele>2376.5</ele><time>2026-09-27T15:44:11Z</time></trkpt>
<trkpt lat="39.139370" lon="-119.915355"><ele>2375.6</ele><time>2026-09-27T15:44:21Z</time></trkpt>
<trkpt lat="39.139595" lon="-119.915227"><ele>2377.4</ele><time>2026-09-27T15:44:35Z</time></trkpt>
<trkpt lat="39.139756" lon="-119.915137"><ele>2378.5</ele><time>2026-09-27T15:44:49Z</time></trkpt>
<trkpt lat="39.139979" lon="-119.915019"><ele>2379.8</ele><time>2026-09-27T15:45:03Z</time></trkpt>
<trkpt lat="39.140237" lon="-119.914927"><ele>2381.5</ele><time>2026-09-27T15:45:11Z</time></trkpt>
<trkpt lat="39.140442" lon="-119.914894"><ele>2380.0</ele><time>2026-09-27T15:45:19Z</time></trkpt>
<trkpt lat="39.140665" lon="-119.914785"><ele>2381.6</ele><time>2026-09-27T15:45:27Z</time></trkpt>
<trkpt lat="39.140902" lon="-119.914710"><ele>2381.6</ele><time>2026-09-27T15:45:34Z</time></trkpt>
<trkpt lat="39.141142" lon="-119.914660"><ele>2385.5</ele><time>2026-09-27T15:45:43Z</time></trkpt>
<trkpt lat="39.141320" lon="-119.914580"><ele>2385.3</ele><time>2026-09-27T15:45:50Z</time></trkpt>
<trkpt lat="39.141574" lon="-119.914568"><ele>2387.1</ele><time>2026-09-27T15:45:57Z</time></trkpt>
<trkpt lat="39.141775" lon="-119.914453"><ele>2388.3</ele><time>2026-09-27T15:46:06Z</time></trkpt>
<trkpt lat="39.142030" lon="-119.914411"><ele>2386.8</ele><time>2026-09-27T15:46:13Z</time></trkpt>
<trkpt lat="39.142195" lon="-119.914339"><ele>2388.8</ele><time>2026-09-27T15:46:21Z</time></trkpt>
<trkpt lat="39.142449" lon="-119.914222"><ele>2389.2</ele><time>2026-09-27T15:46:28Z</time></trkpt>
<trkpt lat="39.142653" lon="-119.914200"><ele>2392.4</ele><time>2026-09-27T15:46:37Z</time></trkpt>
<trkpt lat="39.142895" lon="-119.914128"><ele>2390.0</ele><time>2026-09-27T15:46:44Z</time></trkpt>
<trkpt lat="39.143107" lon="-119.914062"><ele>2394.0</ele><time>2026-09-27T15:46:52Z</time></trkpt>
<trkpt lat="39.143326" lon="-119.913979"><ele>2395.0</ele><time>2026-09-27T15:47:01Z</time></trkpt>
<trkpt lat="39.143548" lon="-119.913948"><ele>2394.4</ele><time>2026-09-27T15:47:08Z</time></trkpt>
<trkpt lat="39.143808" lon="-119.913874"><ele>2395.0</ele><time>2026-09-27T15:47:17Z</time></trkpt>
<trkpt lat="39.144004" lon="-119.913810"><ele>2394.9</ele><time>2026-09-27T15:47:24Z</time></trkpt>
<trkpt lat="39.144200" lon="-119.913773"><ele>2396.9</ele><time>2026-09-27T15:47:33Z</time></trkpt>
<trkpt lat="39.144450" lon="-119.913693"><ele>2398.6</ele><time>2026-09-27T15:47:41Z</time></trkpt>
<trkpt lat="39.144676" lon="-119.913631"><ele>2397.9</ele><time>2026-09-27T15:47:49Z</time></trkpt>
<trkpt lat="39.144888" lon="-119.913547"><ele>2401.6</ele><time>2026-09-27T15:47:56Z</time></trkpt>
<trkpt lat="39.145117" lon="-119.913433"><ele>2399.6</ele><time>2026-09-27T15:48:05Z</time></trkpt>
<trkpt lat="39.145381" lon="-119.913395"><ele>2402.1</ele><time>2026-09-27T15:48:12Z</time></trkpt>
<trkpt lat="39.145531" lon="-119.913375"><ele>2402.9</ele><time>2026-09-27T15:48:20Z</time></trkpt>
<trkpt lat="39.145794" lon="-119.913256"><ele>2403.0</ele><time>2026-09-27T15:48:29Z</time></trkpt>
<trkpt lat="39.146019" lon="-119.913193"><ele>2406.0</ele><time>2026-09-27T15:48:38Z</time></trkpt>
<trkpt lat="39.146197" lon="-119.913087"><ele>2404.8</ele><time>2026-09-27T15:48:45Z</time></trkpt>
<trkpt lat="39.146463" lon="-119.913024"><ele>2405.8</ele><time>2026-09-27T15:48:53Z</time></trkpt>
<trkpt lat="39.146662" lon="-119.913014"><ele>2407.5</ele><time>2026-09-27T15:49:00Z</time></trkpt>
<trkpt lat="39.146890" lon="-119.912932"><ele>2407.3</ele><time>2026-09-27T15:49:09Z</time></trkpt>
<trkpt lat="39.147129" lon="-119.912830"><ele>2410.6</ele><time>2026-09-27T15:49:15Z</time></trkpt>
<trkpt lat="39.147310" lon="-119.912771"><ele>2409.9</ele><time>2026-09-27T15:49:24Z</time></trkpt>
<trkpt lat="39.147536" lon="-119.912752"><ele>2410.4</ele><time>2026-09-27T15:49:33Z</time></trkpt>
<trkpt lat="39.147784" lon="-119.912649"><ele>2411.3</ele><time>2026-09-27T15:49:40Z</time></trkpt>
<trkpt lat="39.147997" lon="-119.912587"><ele>2410.1</ele><time>2026-09-27T15:49:47Z</time></trkpt>
<trkpt lat="39.148229" lon="-119.912532"><ele>2413.7</ele><time>2026-09-27T15:49:57Z</time></trkpt>
<trkpt lat="39.148437" lon="-119.912452"><ele>2413.1</ele><time>2026-09-27T15:50:04Z</time></trkpt>
<trkpt lat="39.148693" lon="-119.912407"><ele>2414.5</ele><time>2026-09-27T15:50:12Z</time></trkpt>
<trkpt lat="39.148921" lon="-119.912334"><ele>2415.7</ele><time>2026-09-27T15:50:20Z</time></trkpt>
<trkpt lat="39.149136" lon="-119.912281"><ele>2416.7</ele><time>2026-09-27T15:50:27Z</time></trkpt>
<trkpt lat="39.149332" lon="-119.912250"><ele>2417.8</ele><time>2026-09-27T15:50:36Z</time></trkpt>
<trkpt lat="39.149544" lon="-119.912123"><ele>2417.0</ele><time>2026-09-27T15:50:42Z</time></trkpt>
<trkpt lat="39.149788" lon="-119.912052"><ele>2421.1</ele><time>2026-09-27T15:50:49Z</time></trkpt>
<trkpt lat="39.150015" lon="-119.912031"><ele>2419.2</ele><time>2026-09-27T15:50:56Z</time></trkpt>
<trkpt lat="39.150205" lon="-119.911941"><ele>2421.3</ele><time>2026-09-27T15:51:01Z</time></trkpt>
<trkpt lat="39.150443" lon="-119.911806"><ele>2419.5</ele><time>2026-09-27T15:51:06Z</time></trkpt>
<trkpt lat="39.150656" lon="-119.911774"><ele>2418.8</ele><time>2026-09-27T15:51:11Z</time></trkpt>
<trkpt lat="39.150909" lon="-119.911715"><ele>2418.9</ele><time>2026-09-27T15:51:15Z</time></trkpt>
<trkpt lat="39.151089" lon="-119.911626"><ele>2418.7</ele><time>2026-09-27T15:51:20Z</time></trkpt>
<trkpt lat="39.151299" lon="-119.911493"><ele>2417.1</ele><time>2026-09-27T15:51:24Z</time></trkpt>
<trkpt lat="39.151493" lon="-119.911416"><ele>2416.7</ele><time>2026-09-27T15:51:29Z</time></trkpt>
<trkpt lat="39.151739" lon="-119.911365"><ele>2416.8</ele><time>2026-09-27T15:51:34Z</time></trkpt>
<trkpt lat="39.151938" lon="-119.911266"><ele>2418.4</ele><time>2026-09-27T15:51:38Z</time></trkpt>
<trkpt lat="39.152186" lon="-119.911155"><ele>2416.4</ele><time>2026-09-27T15:51:43Z</time></trkpt>
<trkpt lat="39.152370" lon="-119.911084"><ele>2417.0</ele><time>2026-09-27T15:51:47Z</time></trkpt>
<trkpt lat="39.152605" lon="-119.911054"><ele>2417.3</ele><time>2026-09-27T15:51:52Z</time></trkpt>
<trkpt lat="39.152810" lon="-119.910930"><ele>2414.4</ele><time>2026-09-27T15:51:57Z</time></trkpt>
<trkpt lat="39.153043" lon="-119.910861"><ele>2416.8</ele><time>2026-09-27T15:52:01Z</time></trkpt>
<trkpt lat="39.153252" lon="-119.910824"><ele>2414.6</ele><time>2026-09-27T15:52:05Z</time></trkpt>
<trkpt lat="39.153474" lon="-119.910719"><ele>2415.5</ele><time>2026-09-27T15:52:10Z</time></trkpt>
<trkpt lat="39.153710" lon="-119.910600"><ele>2416.4</ele><time>2026-09-27T15:52:14Z</time></trkpt>
<trkpt lat="39.153896" lon="-119.910522"><ele>2415.6</ele><time>2026-09-27T15:52:18Z</time></trkpt>
<trkpt lat="39.154119" lon="-119.910483"><ele>2413.8</ele><time>2026-09-27T15:52:23Z</time></trkpt>
<trkpt lat="39.154342" lon="-119.910377"><ele>2414.3</ele><time>2026-09-27T15:52:28Z</time></trkpt>
<trkpt lat="39.154529" lon="-119.910287"><ele>2416.4</ele><time>2026-09-27T15:52:32Z</time></trkpt>
<trkpt lat="39.154765" lon="-119.910213"><ele>2412.9</ele><time>2026-09-27T15:52:37Z</time></trkpt>
<trkpt lat="39.154988" lon="-119.910125"><ele>2414.2</ele><time>2026-09-27T15:52:41Z</time></trkpt>
<trkpt lat="39.155175" lon="-119.910045"><ele>2412.5</ele><time>2026-09-27T15:52:46Z</time></trkpt>
<trkpt lat="39.155452" lon="-119.909990"><ele>2412.8</ele><time>2026-09-27T15:52:50Z</time></trkpt>
<trkpt lat="39.155666" lon="-119.909943"><ele>2412.5</ele><time>2026-09-27T15:52:55Z</time></trkpt>
<trkpt lat="39.155848" lon="-119.909810"><ele>2412.8</ele><time>2026-09-27T15:52:59Z</time></trkpt>
<trkpt lat="39.156021" lon="-119.909713"><ele>2410.4</ele><time>2026-09-27T15:53:03Z</time></trkpt>
<trkpt lat="39.156293" lon="-119.909647"><ele>2412.3</ele><time>2026-09-27T15:53:08Z</time></trkpt>
<trkpt lat="39.156459" lon="-119.909601"><ele>2413.3</ele><time>2026-09-27T15:53:12Z</time></trkpt>
<trkpt lat="39.156718" lon="-119.909498"><ele>2411.6</ele><time>2026-09-27T15:53:17Z</time></trkpt>
<trkpt lat="39.156874" lon="-119.909411"><ele>2412.4</ele><time>2026-09-27T15:53:22Z</time></trkpt>
<trkpt lat="39.157150" lon="-119.909311"><ele>2410.9</ele><time>2026-09-27T15:53:26Z</time></trkpt>
<trkpt lat="39.157402" lon="-119.909262"><ele>2410.4</ele><time>2026-09-27T15:53:31Z</time></trkpt>
<trkpt lat="39.157568" lon="-119.909195"><ele>2412.2</ele><time>2026-09-27T15:53:35Z</time></trkpt>
<trkpt lat="39.157789" lon="-119.909092"><ele>2410.5</ele><time>2026-09-27T15:53:39Z</time></trkpt>
<trkpt lat="39.157986" lon="-119.908979"><ele>2408.1</ele><time>2026-09-27T15:53:44Z</time></trkpt>
<trkpt lat="39.158221" lon="-119.908880"><ele>2408.3</ele><time>2026-09-27T15:53:48Z</time></trkpt>
<trkpt lat="39.158431" lon="-119.908799"><ele>2410.9</ele><time>2026-09-27T15:53:53Z</time></trkpt>
<trkpt lat="39.158675" lon="-119.908693"><ele>2408.5</ele><time>2026-09-27T15:53:57Z</time></trkpt>
<trkpt lat="39.158861" lon="-119.908580"><ele>2409.1</ele><time>2026-09-27T15:54:01Z</time></trkpt>
<trkpt lat="39.159071" lon="-119.908512"><ele>2406.1</ele><time>2026-09-27T15:54:05Z</time></trkpt>
<trkpt lat="39.159313" lon="-119.908412"><ele>2405.9</ele><time>2026-09-27T15:54:09Z</time></trkpt>
<trkpt lat="39.159544" lon="-119.908296"><ele>2405.6</ele><time>2026-09-27T15:54:13Z</time></trkpt>
<trkpt lat="39.159734" lon="-119.908196"><ele>2404.7</ele><time>2026-09-27T15:54:17Z</time></trkpt>
<trkpt lat="39.159941" lon="-119.908098"><ele>2406.4</ele><time>2026-09-27T15:54:22Z</time></trkpt>
<trkpt lat="39.160182" lon="-119.908022"><ele>2405.5</ele><time>2026-09-27T15:54:26Z</time></trkpt>
<trkpt lat="39.160378" lon="-119.907906"><ele>2404.3</ele><time>2026-09-27T15:54:31Z</time></trkpt>
<trkpt lat="39.160566" lon="-119.907778"><ele>2404.5</ele><time>2026-09-27T15:54:35Z</time></trkpt>
<trkpt lat="39.160827" lon="-119.907703"><ele>2406.0</ele><time>2026-09-27T15:54:39Z</time></trkpt>
<trkpt lat="39.160981" lon="-119.907595"><ele>2402.3</ele><time>2026-09-27T15:54:43Z</time></trkpt>
<trkpt lat="39.161200" lon="-119.907497"><ele>2403.1</ele><time>2026-09-27T15:54:47Z</time></trkpt>
<trkpt lat="39.161461" lon="-119.907393"><ele>2401.8</ele><time>2026-09-27T15:54:51Z</time></trkpt>
<trkpt lat="39.161684" lon="-119.907312"><ele>2402.3</ele><time>2026-09-27T15:54:55Z</time></trkpt>
<trkpt lat="39.161890" lon="-119.907185"><ele>2402.1</ele><time>2026-09-27T15:54:59Z</time></trkpt>
<trkpt lat="39.162121" lon="-119.907085"><ele>2399.4</ele><time>2026-09-27T15:55:03Z</time></trkpt>
<trkpt lat="39.162333" lon="-119.906995"><ele>2400.6</ele><time>2026-09-27T15:55:08Z</time></trkpt>
<trkpt lat="39.162532" lon="-119.906938"><ele>2400.5</ele><time>2026-09-27T15:55:12Z</time></trkpt>
<trkpt lat="39.162797" lon="-119.906828"><ele>2398.7</ele><time>2026-09-27T15:55:16Z</time></trkpt>
<trkpt lat="39.163001" lon="-119.906718"><ele>2396.3</ele><time>2026-09-27T15:55:21Z</time></trkpt>
<trkpt lat="39.163180" lon="-119.906572"><ele>2397.9</ele><time>2026-09-27T15:55:25Z</time></trkpt>
<trkpt lat="39.163421" lon="-119.906515"><ele>2399.1</ele><time>2026-09-27T15:55:29Z</time></trkpt>
<trkpt lat="39.163632" lon="-119.906398"><ele>2395.7</ele><time>2026-09-27T15:55:34Z</time></trkpt>
<trkpt lat="39.163850" lon="-119.906306"><ele>2396.9</ele><time>2026-09-27T15:55:38Z</time></trkpt>
<trkpt lat="39.164053" lon="-119.906174"><ele>2395.8</ele><time>2026-09-27T15:55:42Z</time></trkpt>
<trkpt lat="39.164283" lon="-119.906099"><ele>2396.2</ele><time>2026-09-27T15:55:46Z</time></trkpt>
<trkpt lat="39.164502" lon="-119.906022"><ele>2395.6</ele><time>2026-09-27T15:55:50Z</time></trkpt>
<trkpt lat="39.164697" lon="-119.905823"><ele>2394.6</ele><time>2026-09-27T15:55:55Z</time></trkpt>
<trkpt lat="39.164872" lon="-119.905672"><ele>2395.0</ele><time>2026-09-27T15:56:00Z</time></trkpt>
<trkpt lat="39.165067" lon="-119.905474"><ele>2393.7</ele><time>2026-09-27T15:56:05Z</time></trkpt>
<trkpt lat="39.165243" lon="-119.905344"><ele>2394.3</ele><time>2026-09-27T15:56:09Z</time></trkpt>
<trkpt lat="39.165438" lon="-119.905155"><ele>2395.4</ele><time>2026-09-27T15:56:13Z</time></trkpt>
<trkpt lat="39.165641" lon="-119.904996"><ele>2392.6</ele><time>2026-09-27T15:56:18Z</time></trkpt>
<trkpt lat="39.165841" lon="-119.904831"><ele>2392.5</ele><time>2026-09-27T15:56:22Z</time></trkpt>
<trkpt lat="39.165993" lon="-119.904711"><ele>2394.3</ele><time>2026-09-27T15:56:27Z</time></trkpt>
<trkpt lat="39.166188" lon="-119.904457"><ele>2394.5</ele><time>2026-09-27T15:56:31Z</time></trkpt>
<trkpt lat="39.166382" lon="-119.904333"><ele>2393.3</ele><time>2026-09-27T15:56:36Z</time></trkpt>
<trkpt lat="39.166588" lon="-119.904165"><ele>2393.3</ele><time>2026-09-27T15:56:40Z</time></trkpt>
<trkpt lat="39.166746" lon="-119.904019"><ele>2391.6</ele><time>2026-09-27T15:56:45Z</time></trkpt>
<trkpt lat="39.166942" lon="-119.903845"><ele>2391.9</ele><time>2026-09-27T15:56:50Z</time></trkpt>
<trkpt lat="39.167141" lon="-119.903640"><ele>2390.7</ele><time>2026-09-27T15:56:55Z</time></trkpt>
<trkpt lat="39.167351" lon="-119.903498"><ele>2391.8</ele><time>2026-09-27T15:56:59Z</time></trkpt>
<trkpt lat="39.167478" lon="-119.903347"><ele>2391.9</ele><time>2026-09-27T15:57:04Z</time></trkpt>
<trkpt lat="39.167688" lon="-119.903161"><ele>2390.4</ele><time>2026-09-27T15:57:09Z</time></trkpt>
<trkpt lat="39.167904" lon="-119.902982"><ele>2389.7</ele><time>2026-09-27T15:57:13Z</time></trkpt>
<trkpt lat="39.168042" lon="-119.902840"><ele>2391.4</ele><time>2026-09-27T15:57:18Z</time></trkpt>
<trkpt lat="39.168226" lon="-119.902699"><ele>2388.4</ele><time>2026-09-27T15:57:23Z</time></trkpt>
<trkpt lat="39.168440" lon="-119.902502"><ele>2390.6</ele><time>2026-09-27T15:57:28Z</time></trkpt>
<trkpt lat="39.168640" lon="-119.902302"><ele>2389.7</ele><time>2026-09-27T15:57:32Z</time></trkpt>
<trkpt lat="39.168826" lon="-119.902179"><ele>2390.4</ele><time>2026-09-27T15:57:37Z</time></trkpt>
<trkpt lat="39.169044" lon="-119.902010"><ele>2388.3</ele><time>2026-09-27T15:57:41Z</time></trkpt>
<trkpt lat="39.168748" lon="-119.901886"><ele>2389.8</ele><time>2026-09-27T15:57:47Z</time></trkpt>
<trkpt lat="39.168534" lon="-119.901790"><ele>2389.5</ele><time>2026-09-27T15:57:53Z</time></trkpt>
<trkpt lat="39.168364" lon="-119.901651"><ele>2393.9</ele><time>2026-09-27T15:58:00Z</time></trkpt>
<trkpt lat="39.168164" lon="-119.901562"><ele>2392.2</ele><time>2026-09-27T15:58:07Z</time></trkpt>
<trkpt lat="39.167922" lon="-119.901455"><ele>2393.0</ele><time>2026-09-27T15:58:13Z</time></trkpt>
<trkpt lat="39.167715" lon="-119.901378"><ele>2391.8</ele><time>2026-09-27T15:58:19Z</time></trkpt>
<trkpt lat="39.167524" lon="-119.901239"><ele>2392.3</ele><time>2026-09-27T15:58:25Z</time></trkpt>
<trkpt lat="39.167314" lon="-119.901137"><ele>2394.0</ele><time>2026-09-27T15:58:31Z</time></trkpt>
<trkpt lat="39.167113" lon="-119.901060"><ele>2395.5</ele><time>2026-09-27T15:58:36Z</time></trkpt>
<trkpt lat="39.166866" lon="-119.900891"><ele>2395.9</ele><time>2026-09-27T15:58:43Z</time></trkpt>
<trkpt lat="39.166618" lon="-119.900849"><ele>2395.2</ele><time>2026-09-27T15:58:49Z</time></trkpt>
<trkpt lat="39.166416" lon="-119.900687"><ele>2397.6</ele><time>2026-09-27T15:58:56Z</time></trkpt>
<trkpt lat="39.166205" lon="-119.900588"><ele>2397.9</ele><time>2026-09-27T15:59:03Z</time></trkpt>
<trkpt lat="39.166002" lon="-119.900504"><ele>2396.4</ele><time>2026-09-27T15:59:10Z</time></trkpt>
<trkpt lat="39.165809" lon="-119.900398"><ele>2399.0</ele><time>2026-09-27T15:59:17Z</time></trkpt>
<trkpt lat="39.165549" lon="-119.900304"><ele>2399.2</ele><time>2026-09-27T15:59:24Z</time></trkpt>
<trkpt lat="39.165339" lon="-119.900153"><ele>2398.3</ele><time>2026-09-27T15:59:30Z</time></trkpt>
<trkpt lat="39.165140" lon="-119.900040"><ele>2400.8</ele><time>2026-09-27T15:59:36Z</time></trkpt>
<trkpt lat="39.164942" lon="-119.899964"><ele>2400.4</ele><time>2026-09-27T15:59:43Z</time></trkpt>
<trkpt lat="39.164659" lon="-119.899880"><ele>2400.8</ele><time>2026-09-27T15:59:50Z</time></trkpt>
<trkpt lat="39.164509" lon="-119.899729"><ele>2400.0</ele><time>2026-09-27T15:59:56Z</time></trkpt>
<trkpt lat="39.164317" lon="-119.899628"><ele>2401.4</ele><time>2026-09-27T16:00:03Z</time></trkpt>
<trkpt lat="39.164064" lon="-119.899558"><ele>2403.6</ele><time>2026-09-27T16:00:09Z</time></trkpt>
<trkpt lat="39.163875" lon="-119.899421"><ele>2401.1</ele><time>2026-09-27T16:00:17Z</time></trkpt>
<trkpt lat="39.163630" lon="-119.899335"><ele>2402.4</ele><time>2026-09-27T16:00:22Z</time></trkpt>
<trkpt lat="39.163440" lon="-119.899178"><ele>2405.2</ele><time>2026-09-27T16:00:28Z</time></trkpt>
<trkpt lat="39.163219" lon="-119.899092"><ele>2405.6</ele><time>2026-09-27T16:00:35Z</time></trkpt>
<trkpt lat="39.162986" lon="-119.898989"><ele>2404.4</ele><time>2026-09-27T16:00:42Z</time></trkpt>
<trkpt lat="39.162743" lon="-119.899047"><ele>2404.3</ele><time>2026-09-27T16:00:46Z</time></trkpt>
<trkpt lat="39.162522" lon="-119.899087"><ele>2404.2</ele><time>2026-09-27T16:00:50Z</time></trkpt>
<trkpt lat="39.162309" lon="-119.899150"><ele>2403.5</ele><time>2026-09-27T16:00:54Z</time></trkpt>
<trkpt lat="39.162121" lon="-119.899172"><ele>2401.8</ele><time>2026-09-27T16:00:57Z</time></trkpt>
<trkpt lat="39.161889" lon="-119.899214"><ele>2401.8</ele><time>2026-09-27T16:01:01Z</time></trkpt>
<trkpt lat="39.161669" lon="-119.899238"><ele>2400.1</ele><time>2026-09-27T16:01:05Z</time></trkpt>
<trkpt lat="39.161429" lon="-119.899268"><ele>2399.3</ele><time>2026-09-27T16:01:09Z</time></trkpt>
<trkpt lat="39.161202" lon="-119.899306"><ele>2402.3</ele><time>2026-09-27T16:01:13Z</time></trkpt>
<trkpt lat="39.161021" lon="-119.899337"><ele>2399.5</ele><time>2026-09-27T16:01:17Z</time></trkpt>
<trkpt lat="39.160767" lon="-119.899399"><ele>2396.0</ele><time>2026-09-27T16:01:20Z</time></trkpt>
<trkpt lat="39.160540" lon="-119.899422"><ele>2397.8</ele><time>2026-09-27T16:01:24Z</time></trkpt>
<trkpt lat="39.160315" lon="-119.899470"><ele>2396.7</ele><time>2026-09-27T16:01:28Z</time></trkpt>
<trkpt lat="39.160073" lon="-119.899553"><ele>2394.8</ele><time>2026-09-27T16:01:32Z</time></trkpt>
<trkpt lat="39.159841" lon="-119.899588"><ele>2394.3</ele><time>2026-09-27T16:01:36Z</time></trkpt>
<trkpt lat="39.159650" lon="-119.899624"><ele>2392.5</ele><time>2026-09-27T16:01:40Z</time></trkpt>
<trkpt lat="39.159393" lon="-119.899649"><ele>2395.5</ele><time>2026-09-27T16:01:44Z</time></trkpt>
<trkpt lat="39.159188" lon="-119.899725"><ele>2393.9</ele><time>2026-09-27T16:01:48Z</time></trkpt>
<trkpt lat="39.158935" lon="-119.899751"><ele>2392.4</ele><time>2026-09-27T16:01:51Z</time></trkpt>
<trkpt lat="39.158752" lon="-119.899763"><ele>2391.8</ele><time>2026-09-27T16:01:55Z</time></trkpt>
<trkpt lat="39.158479" lon="-119.899816"><ele>2392.0</ele><time>2026-09-27T16:01:59Z</time></trkpt>
<trkpt lat="39.158271" lon="-119.899871"><ele>2388.7</ele><time>2026-09-27T16:02:03Z</time></trkpt>
<trkpt lat="39.158020" lon="-119.899918"><ele>2387.6</ele><time>2026-09-27T16:02:07Z</time></trkpt>
<trkpt lat="39.157783" lon="-119.899935"><ele>2390.0</ele><time>2026-09-27T16:02:11Z</time></trkpt>
<trkpt lat="39.157618" lon="-119.899970"><ele>2385.1</ele><time>2026-09-27T16:02:15Z</time></trkpt>
<trkpt lat="39.157409" lon="-119.900005"><ele>2385.3</ele><time>2026-09-27T16:02:19Z</time></trkpt>
<trkpt lat="39.157155" lon="-119.900085"><ele>2384.7</ele><time>2026-09-27T16:02:23Z</time></trkpt>
<trkpt lat="39.156898" lon="-119.900076"><ele>2386.2</ele><time>2026-09-27T16:02:27Z</time></trkpt>
<trkpt lat="39.156744" lon="-119.900142"><ele>2384.4</ele><time>2026-09-27T16:02:31Z</time></trkpt>
<trkpt lat="39.156486" lon="-119.900178"><ele>2384.1</ele><time>2026-09-27T16:02:34Z</time></trkpt>
<trkpt lat="39.156285" lon="-119.900243"><ele>2384.2</ele><time>2026-09-27T16:02:39Z</time></trkpt>
<trkpt lat="39.156031" lon="-119.900253"><ele>2383.2</ele><time>2026-09-27T16:02:42Z</time></trkpt>
<trkpt lat="39.155849" lon="-119.900320"><ele>2382.0</ele><time>2026-09-27T16:02:46Z</time></trkpt>
<trkpt lat="39.155581" lon="-119.900338"><ele>2382.9</ele><time>2026-09-27T16:02:50Z</time></trkpt>
<trkpt lat="39.155392" lon="-119.900403"><ele>2379.7</ele><time>2026-09-27T16:02:53Z</time></trkpt>
<trkpt lat="39.155151" lon="-119.900378"><ele>2379.0</ele><time>2026-09-27T16:02:57Z</time></trkpt>
<trkpt lat="39.154941" lon="-119.900460"><ele>2378.1</ele><time>2026-09-27T16:03:01Z</time></trkpt>
<trkpt lat="39.154684" lon="-119.900513"><ele>2379.1</ele><time>2026-09-27T16:03:05Z</time></trkpt>
<trkpt lat="39.154453" lon="-119.900553"><ele>2379.0</ele><time>2026-09-27T16:03:09Z</time></trkpt>
<trkpt lat="39.154233" lon="-119.900586"><ele>2379.1</ele><time>2026-09-27T16:03:13Z</time></trkpt>
<trkpt lat="39.154021" lon="-119.900632"><ele>2377.4</ele><time>2026-09-27T16:03:17Z</time></trkpt>
<trkpt lat="39.153770" lon="-119.900661"><ele>2375.1</ele><time>2026-09-27T16:03:21Z</time></trkpt>
<trkpt lat="39.153555" lon="-119.900710"><ele>2374.7</ele><time>2026-09-27T16:03:24Z</time></trkpt>
<trkpt lat="39.153376" lon="-119.900775"><ele>2375.7</ele><time>2026-09-27T16:03:28Z</time></trkpt>
<trkpt lat="39.153152" lon="-119.900793"><ele>2373.6</ele><time>2026-09-27T16:03:32Z</time></trkpt>
<trkpt lat="39.152890" lon="-119.900849"><ele>2373.4</ele><time>2026-09-27T16:03:35Z</time></trkpt>
<trkpt lat="39.152680" lon="-119.900875"><ele>2371.1</ele><time>2026-09-27T16:03:40Z</time></trkpt>
<trkpt lat="39.152478" lon="-119.900938"><ele>2372.7</ele><time>2026-09-27T16:03:44Z</time></trkpt>
<trkpt lat="39.152261" lon="-119.900953"><ele>2369.0</ele><time>2026-09-27T16:03:48Z</time></trkpt>
<trkpt lat="39.152009" lon="-119.901037"><ele>2370.6</ele><time>2026-09-27T16:03:51Z</time></trkpt>
<trkpt lat="39.151809" lon="-119.901081"><ele>2367.3</ele><time>2026-09-27T16:03:54Z</time></trkpt>
<trkpt lat="39.151545" lon="-119.901165"><ele>2367.3</ele><time>2026-09-27T16:03:57Z</time></trkpt>
<trkpt lat="39.151351" lon="-119.901219"><ele>2366.3</ele><time>2026-09-27T16:04:01Z</time></trkpt>
<trkpt lat="39.151097" lon="-119.901319"><ele>2362.1</ele><time>2026-09-27T16:04:04Z</time></trkpt>
<trkpt lat="39.150890" lon="-119.901388"><ele>2361.9</ele><time>2026-09-27T16:04:08Z</time></trkpt>
<trkpt lat="39.150661" lon="-119.901513"><ele>2360.7</ele><time>2026-09-27T16:04:11Z</time></trkpt>
<trkpt lat="39.150475" lon="-119.901535"><ele>2361.0</ele><time>2026-09-27T16:04:14Z</time></trkpt>
<trkpt lat="39.150267" lon="-119.901635"><ele>2357.7</ele><time>2026-09-27T16:04:17Z</time></trkpt>
<trkpt lat="39.149978" lon="-119.901696"><ele>2357.2</ele><time>2026-09-27T16:04:20Z</time></trkpt>
<trkpt lat="39.149804" lon="-119.901803"><ele>2355.7</ele><time>2026-09-27T16:04:23Z</time></trkpt>
<trkpt lat="39.149553" lon="-119.901868"><ele>2353.7</ele><time>2026-09-27T16:04:27Z</time></trkpt>
<trkpt lat="39.149326" lon="-119.901965"><ele>2353.5</ele><time>2026-09-27T16:04:30Z</time></trkpt>
<trkpt lat="39.149161" lon="-119.902075"><ele>2351.1</ele><time>2026-09-27T16:04:33Z</time></trkpt>
<trkpt lat="39.148930" lon="-119.902138"><ele>2349.4</ele><time>2026-09-27T16:04:37Z</time></trkpt>
<trkpt lat="39.148700" lon="-119.902171"><ele>2348.7</ele><time>2026-09-27T16:04:40Z</time></trkpt>
<trkpt lat="39.148471" lon="-119.902265"><ele>2347.1</ele><time>2026-09-27T16:04:43Z</time></trkpt>
<trkpt lat="39.148285" lon="-119.902359"><ele>2345.9</ele><time>2026-09-27T16:04:46Z</time></trkpt>
<trkpt lat="39.148059" lon="-119.902457"><ele>2345.8</ele><time>2026-09-27T16:04:49Z</time></trkpt>
<trkpt lat="39.147825" lon="-119.902503"><ele>2345.9</ele><time>2026-09-27T16:04:53Z</time></trkpt>
<trkpt lat="39.147581" lon="-119.902630"><ele>2343.4</ele><time>2026-09-27T16:04:56Z</time></trkpt>
<trkpt lat="39.147365" lon="-119.902702"><ele>2339.3</ele><time>2026-09-27T16:04:59Z</time></trkpt>
<trkpt lat="39.147154" lon="-119.902773"><ele>2338.5</ele><time>2026-09-27T16:05:02Z</time></trkpt>
<trkpt lat="39.146921" lon="-119.902830"><ele>2338.3</ele><time>2026-09-27T16:05:05Z</time></trkpt>
<trkpt lat="39.146727" lon="-119.902964"><ele>2335.8</ele><time>2026-09-27T16:05:09Z</time></trkpt>
<trkpt lat="39.146484" lon="-119.902994"><ele>2333.5</ele><time>2026-09-27T16:05:12Z</time></trkpt>
<trkpt lat="39.146273" lon="-119.903060"><ele>2333.1</ele><time>2026-09-27T16:05:15Z</time></trkpt>
<trkpt lat="39.146079" lon="-119.903154"><ele>2332.0</ele><time>2026-09-27T16:05:18Z</time></trkpt>
<trkpt lat="39.145850" lon="-119.903238"><ele>2331.4</ele><time>2026-09-27T16:05:21Z</time></trkpt>
<trkpt lat="39.145596" lon="-119.903323"><ele>2329.5</ele><time>2026-09-27T16:05:25Z</time></trkpt>
<trkpt lat="39.145361" lon="-119.903426"><ele>2329.4</ele><time>2026-09-27T16:05:28Z</time></trkpt>
<trkpt lat="39.145177" lon="-119.903457"><ele>2327.6</ele><time>2026-09-27T16:05:31Z</time></trkpt>
<trkpt lat="39.144962" lon="-119.903557"><ele>2327.0</ele><time>2026-09-27T16:05:34Z</time></trkpt>
<trkpt lat="39.144741" lon="-119.903632"><ele>2323.7</ele><time>2026-09-27T16:05:38Z</time></trkpt>
<trkpt lat="39.144523" lon="-119.903717"><ele>2322.2</ele><time>2026-09-27T16:05:41Z</time></trkpt>
<trkpt lat="39.144285" lon="-119.903798"><ele>2321.4</ele><time>2026-09-27T16:05:44Z</time></trkpt>
<trkpt lat="39.144071" lon="-119.903918"><ele>2319.5</ele><time>2026-09-27T16:05:47Z</time></trkpt>
<trkpt lat="39.143852" lon="-119.903966"><ele>2316.9</ele><time>2026-09-27T16:05:50Z</time></trkpt>
<trkpt lat="39.143639" lon="-119.903988"><ele>2316.8</ele><time>2026-09-27T16:05:53Z</time></trkpt>
<trkpt lat="39.143417" lon="-119.904142"><ele>2313.6</ele><time>2026-09-27T16:05:57Z</time></trkpt>
<trkpt lat="39.143188" lon="-119.904170"><ele>2315.2</ele><time>2026-09-27T16:06:00Z</time></trkpt>
<trkpt lat="39.143014" lon="-119.904262"><ele>2313.0</ele><time>2026-09-27T16:06:03Z</time></trkpt>
<trkpt lat="39.142732" lon="-119.904349"><ele>2312.5</ele><time>2026-09-27T16:06:07Z</time></trkpt>
<trkpt lat="39.142568" lon="-119.904457"><ele>2308.5</ele><time>2026-09-27T16:06:10Z</time></trkpt>
<trkpt lat="39.142294" lon="-119.904497"><ele>2310.4</ele><time>2026-09-27T16:06:13Z</time></trkpt>
<trkpt lat="39.142088" lon="-119.904602"><ele>2307.4</ele><time>2026-09-27T16:06:16Z</time></trkpt>
<trkpt lat="39.141869" lon="-119.904716"><ele>2304.8</ele><time>2026-09-27T16:06:19Z</time></trkpt>
<trkpt lat="39.141684" lon="-119.904747"><ele>2302.8</ele><time>2026-09-27T16:06:22Z</time></trkpt>
<trkpt lat="39.141402" lon="-119.904822"><ele>2301.5</ele><time>2026-09-27T16:06:26Z</time></trkpt>
<trkpt lat="39.141241" lon="-119.904891"><ele>2300.1</ele><time>2026-09-27T16:06:29Z</time></trkpt>
<trkpt lat="39.141016" lon="-119.905000"><ele>2298.6</ele><time>2026-09-27T16:06:32Z</time></trkpt>
<trkpt lat="39.140792" lon="-119.905076"><ele>2298.6</ele><time>2026-09-27T16:06:35Z</time></trkpt>
<trkpt lat="39.140575" lon="-119.905197"><ele>2296.7</ele><time>2026-09-27T16:06:39Z</time></trkpt>
<trkpt lat="39.140333" lon="-119.905229"><ele>2294.7</ele><time>2026-09-27T16:06:42Z</time></trkpt>
<trkpt lat="39.140115" lon="-119.905313"><ele>2293.2</ele><time>2026-09-27T16:06:45Z</time></trkpt>
<trkpt lat="39.139888" lon="-119.905400"><ele>2291.2</ele><time>2026-09-27T16:06:49Z</time></trkpt>
<trkpt lat="39.139656" lon="-119.905499"><ele>2292.0</ele><time>2026-09-27T16:06:52Z</time></trkpt>
<trkpt lat="39.139463" lon="-119.905560"><ele>2289.5</ele><time>2026-09-27T16:06:56Z</time></trkpt>
<trkpt lat="39.139271" lon="-119.905621"><ele>2290.5</ele><time>2026-09-27T16:06:59Z</time></trkpt>
<trkpt lat="39.139006" lon="-119.905687"><ele>2287.7</ele><time>2026-09-27T16:07:03Z</time></trkpt>
<trkpt lat="39.138774" lon="-119.905796"><ele>2288.3</ele><time>2026-09-27T16:07:06Z</time></trkpt>
<trkpt lat="39.138592" lon="-119.905886"><ele>2285.7</ele><time>2026-09-27T16:07:10Z</time></trkpt>
<trkpt lat="39.138340" lon="-119.905946"><ele>2285.8</ele><time>2026-09-27T16:07:13Z</time></trkpt>
<trkpt lat="39.138145" lon="-119.906047"><ele>2284.8</ele><time>2026-09-27T16:07:16Z</time></trkpt>
<trkpt lat="39.137923" lon="-119.906131"><ele>2282.3</ele><time>2026-09-27T16:07:19Z</time></trkpt>
<trkpt lat="39.137689" lon="-119.906195"><ele>2282.0</ele><time>2026-09-27T16:07:23Z</time></trkpt>
<trkpt lat="39.137495" lon="-119.906297"><ele>2279.9</ele><time>2026-09-27T16:07:26Z</time></trkpt>
<trkpt lat="39.137254" lon="-119.906403"><ele>2280.9</ele><time>2026-09-27T16:07:29Z</time></trkpt>
<trkpt lat="39.137062" lon="-119.906487"><ele>2278.4</ele><time>2026-09-27T16:07:32Z</time></trkpt>
<trkpt lat="39.136826" lon="-119.906516"><ele>2277.7</ele><time>2026-09-27T16:07:36Z</time></trkpt>
<trkpt lat="39.136562" lon="-119.906614"><ele>2273.2</ele><time>2026-09-27T16:07:40Z</time></trkpt>
<trkpt lat="39.136393" lon="-119.906655"><ele>2275.4</ele><time>2026-09-27T16:07:43Z</time></trkpt>
<trkpt lat="39.136197" lon="-119.906725"><ele>2273.5</ele><time>2026-09-27T16:07:46Z</time></trkpt>
<trkpt lat="39.135966" lon="-119.906811"><ele>2271.9</ele><time>2026-09-27T16:07:50Z</time></trkpt>
<trkpt lat="39.135709" lon="-119.906916"><ele>2274.8</ele><time>2026-09-27T16:07:53Z</time></trkpt>
<trkpt lat="39.135487" lon="-119.906985"><ele>2270.2</ele><time>2026-09-27T16:07:57Z</time></trkpt>
<trkpt lat="39.135316" lon="-119.907105"><ele>2269.0</ele><time>2026-09-27T16:08:00Z</time></trkpt>
<trkpt lat="39.135055" lon="-119.907167"><ele>2265.9</ele><time>2026-09-27T16:08:03Z</time></trkpt>
<trkpt lat="39.134851" lon="-119.907236"><ele>2266.5</ele><time>2026-09-27T16:08:06Z</time></trkpt>
<trkpt lat="39.134573" lon="-119.907328"><ele>2266.7</ele><time>2026-09-27T16:08:10Z</time></trkpt>
<trkpt lat="39.134414" lon="-119.907389"><ele>2264.0</ele><time>2026-09-27T16:08:13Z</time></trkpt>
<trkpt lat="39.134190" lon="-119.907473"><ele>2263.6</ele><time>2026-09-27T16:08:16Z</time></trkpt>
<trkpt lat="39.133959" lon="-119.907563"><ele>2261.4</ele><time>2026-09-27T16:08:20Z</time></trkpt>
<trkpt lat="39.133727" lon="-119.907627"><ele>2260.0</ele><time>2026-09-27T16:08:24Z</time></trkpt>
<trkpt lat="39.133548" lon="-119.907751"><ele>2260.0</ele><time>2026-09-27T16:08:27Z</time></trkpt>
<trkpt lat="39.133317" lon="-119.907765"><ele>2257.0</ele><time>2026-09-27T16:08:31Z</time></trkpt>
<trkpt lat="39.133063" lon="-119.907875"><ele>2257.4</ele><time>2026-09-27T16:08:34Z</time></trkpt>
<trkpt lat="39.132840" lon="-119.907951"><ele>2256.3</ele><time>2026-09-27T16:08:37Z</time></trkpt>
<trkpt lat="39.132634" lon="-119.908065"><ele>2255.9</ele><time>2026-09-27T16:08:41Z</time></trkpt>
<trkpt lat="39.132452" lon="-119.908130"><ele>2253.6</ele><time>2026-09-27T16:08:44Z</time></trkpt>
<trkpt lat="39.132210" lon="-119.908215"><ele>2252.7</ele><time>2026-09-27T16:08:48Z</time></trkpt>
<trkpt lat="39.132000" lon="-119.908272"><ele>2250.5</ele><time>2026-09-27T16:08:51Z</time></trkpt>
<trkpt lat="39.131800" lon="-119.908345"><ele>2249.2</ele><time>2026-09-27T16:08:55Z</time></trkpt>
<trkpt lat="39.131528" lon="-119.908443"><ele>2249.3</ele><time>2026-09-27T16:08:58Z</time></trkpt>
<trkpt lat="39.131280" lon="-119.908474"><ele>2249.9</ele><time>2026-09-27T16:09:01Z</time></trkpt>
<trkpt lat="39.131099" lon="-119.908610"><ele>2248.5</ele><time>2026-09-27T16:09:05Z</time></trkpt>
<trkpt lat="39.130878" lon="-119.908696"><ele>2245.0</ele><time>2026-09-27T16:09:09Z</time></trkpt>
<trkpt lat="39.130660" lon="-119.908766"><ele>2244.2</ele><time>2026-09-27T16:09:12Z</time></trkpt>
<trkpt lat="39.130452" lon="-119.908861"><ele>2242.9</ele><time>2026-09-27T16:09:16Z</time></trkpt>
<trkpt lat="39.130240" lon="-119.908915"><ele>2242.7</ele><time>2026-09-27T16:09:19Z</time></trkpt>
<trkpt lat="39.130015" lon="-119.908969"><ele>2239.8</ele><time>2026-09-27T16:09:22Z</time></trkpt>
<trkpt lat="39.129767" lon="-119.909037"><ele>2239.7</ele><time>2026-09-27T16:09:26Z</time></trkpt>
<trkpt lat="39.129558" lon="-119.909107"><ele>2236.2</ele><time>2026-09-27T16:09:29Z</time></trkpt>
<trkpt lat="39.129320" lon="-119.909192"><ele>2236.0</ele><time>2026-09-27T16:09:33Z</time></trkpt>
<trkpt lat="39.129118" lon="-119.909260"><ele>2235.1</ele><time>2026-09-27T16:09:36Z</time></trkpt>
<trkpt lat="39.128893" lon="-119.909320"><ele>2236.0</ele><time>2026-09-27T16:09:40Z</time></trkpt>
<trkpt lat="39.128676" lon="-119.909360"><ele>2234.0</ele><time>2026-09-27T16:09:43Z</time></trkpt>
<trkpt lat="39.128448" lon="-119.909421"><ele>2232.4</ele><time>2026-09-27T16:09:46Z</time></trkpt>
<trkpt lat="39.128232" lon="-119.909471"><ele>2229.3</ele><time>2026-09-27T16:09:49Z</time></trkpt>
<trkpt lat="39.128039" lon="-119.909562"><ele>2229.0</ele><time>2026-09-27T16:09:53Z</time></trkpt>
<trkpt lat="39.127823" lon="-119.909578"><ele>2229.0</ele><time>2026-09-27T16:09:56Z</time></trkpt>
<trkpt lat="39.127543" lon="-119.909665"><ele>2225.7</ele><time>2026-09-27T16:10:00Z</time></trkpt>
<trkpt lat="39.127398" lon="-119.909705"><ele>2226.9</ele><time>2026-09-27T16:10:03Z</time></trkpt>
<trkpt lat="39.127133" lon="-119.909804"><ele>2224.1</ele><time>2026-09-27T16:10:06Z</time></trkpt>
<trkpt lat="39.126934" lon="-119.909843"><ele>2223.4</ele><time>2026-09-27T16:10:10Z</time></trkpt>
<trkpt lat="39.126708" lon="-119.909898"><ele>2221.7</ele><time>2026-09-27T16:10:13Z</time></trkpt>
<trkpt lat="39.126476" lon="-119.909973"><ele>2222.4</ele><time>2026-09-27T16:10:17Z</time></trkpt>
<trkpt lat="39.126263" lon="-119.910051"><ele>2219.3</ele><time>2026-09-27T16:10:20Z</time></trkpt>
<trkpt lat="39.126062" lon="-119.910103"><ele>2219.0</ele><time>2026-09-27T16:10:24Z</time></trkpt>
<trkpt lat="39.125823" lon="-119.910156"><ele>2217.2</ele><time>2026-09-27T16:10:27Z</time></trkpt>
<trkpt lat="39.125591" lon="-119.910194"><ele>2214.0</ele><time>2026-09-27T16:10:31Z</time></trkpt>
<trkpt lat="39.125358" lon="-119.910290"><ele>2213.9</ele><time>2026-09-27T16:10:34Z</time></trkpt>
<trkpt lat="39.125182" lon="-119.910362"><ele>2212.6</ele><time>2026-09-27T16:10:38Z</time></trkpt>
<trkpt lat="39.124953" lon="-119.910400"><ele>2212.2</ele><time>2026-09-27T16:10:41Z</time></trkpt>
<trkpt lat="39.124723" lon="-119.910458"><ele>2211.3</ele><time>2026-09-27T16:10:44Z</time></trkpt>
<trkpt lat="39.124518" lon="-119.910464"><ele>2209.7</ele><time>2026-09-27T16:10:48Z</time></trkpt>
<trkpt lat="39.124295" lon="-119.910596"><ele>2210.2</ele><time>2026-09-27T16:10:51Z</time></trkpt>
<trkpt lat="39.124068" lon="-119.910606"><ele>2207.2</ele><time>2026-09-27T16:10:54Z</time></trkpt>
<trkpt lat="39.123827" lon="-119.910694"><ele>2206.0</ele><time>2026-09-27T16:10:58Z</time></trkpt>
<trkpt lat="39.123619" lon="-119.910744"><ele>2205.2</ele><time>2026-09-27T16:11:01Z</time></trkpt>
<trkpt lat="39.123434" lon="-119.910807"><ele>2205.6</ele><time>2026-09-27T16:11:05Z</time></trkpt>
<trkpt lat="39.123169" lon="-119.910829"><ele>2201.1</ele><time>2026-09-27T16:11:08Z</time></trkpt>
<trkpt lat="39.122950" lon="-119.910932"><ele>2201.2</ele><time>2026-09-27T16:11:11Z</time></trkpt>
<trkpt lat="39.122726" lon="-119.910955"><ele>2199.6</ele><time>2026-09-27T16:11:15Z</time></trkpt>
<trkpt lat="39.122499" lon="-119.911043"><ele>2200.1</ele><time>2026-09-27T16:11:18Z</time></trkpt>
<trkpt lat="39.122295" lon="-119.911106"><ele>2197.5</ele><time>2026-09-27T16:11:22Z</time></trkpt>
<trkpt lat="39.122103" lon="-119.911167"><ele>2196.6</ele><time>2026-09-27T16:11:25Z</time></trkpt>
<trkpt lat="39.121882" lon="-119.911214"><ele>2196.1</ele><time>2026-09-27T16:11:28Z</time></trkpt>
<trkpt lat="39.121634" lon="-119.911260"><ele>2194.2</ele><time>2026-09-27T16:11:32Z</time></trkpt>
<trkpt lat="39.121435" lon="-119.911377"><ele>2192.5</ele><time>2026-09-27T16:11:36Z</time></trkpt>
<trkpt lat="39.121174" lon="-119.911412"><ele>2192.6</ele><time>2026-09-27T16:11:39Z</time></trkpt>
<trkpt lat="39.121010" lon="-119.911486"><ele>2190.3</ele><time>2026-09-27T16:11:42Z</time></trkpt>
<trkpt lat="39.120754" lon="-119.911506"><ele>2189.9</ele><time>2026-09-27T16:11:46Z</time></trkpt>
<trkpt lat="39.120564" lon="-119.911583"><ele>2188.3</ele><time>2026-09-27T16:11:49Z</time></trkpt>
<trkpt lat="39.120330" lon="-119.911651"><ele>2185.9</ele><time>2026-09-27T16:11:53Z</time></trkpt>
<trkpt lat="39.120092" lon="-119.911683"><ele>2185.9</ele><time>2026-09-27T16:11:56Z</time></trkpt>
<trkpt lat="39.119884" lon="-119.911754"><ele>2185.7</ele><time>2026-09-27T16:11:59Z</time></trkpt>
<trkpt lat="39.119644" lon="-119.911836"><ele>2184.4</ele><time>2026-09-27T16:12:03Z</time></trkpt>
<trkpt lat="39.119451" lon="-119.911871"><ele>2184.3</ele><time>2026-09-27T16:12:06Z</time></trkpt>
<trkpt lat="39.119212" lon="-119.911950"><ele>2182.2</ele><time>2026-09-27T16:12:10Z</time></trkpt>
<trkpt lat="39.118971" lon="-119.912026"><ele>2180.6</ele><time>2026-09-27T16:12:13Z</time></trkpt>
<trkpt lat="39.118756" lon="-119.912057"><ele>2177.1</ele><time>2026-09-27T16:12:17Z</time></trkpt>
<trkpt lat="39.118562" lon="-119.912142"><ele>2178.8</ele><time>2026-09-27T16:12:20Z</time></trkpt>
<trkpt lat="39.118328" lon="-119.912133"><ele>2177.4</ele><time>2026-09-27T16:12:24Z</time></trkpt>
<trkpt lat="39.118060" lon="-119.912222"><ele>2175.3</ele><time>2026-09-27T16:12:28Z</time></trkpt>
<trkpt lat="39.117880" lon="-119.912259"><ele>2174.4</ele><time>2026-09-27T16:12:31Z</time></trkpt>
<trkpt lat="39.117646" lon="-119.912327"><ele>2174.5</ele><time>2026-09-27T16:12:35Z</time></trkpt>
<trkpt lat="39.117428" lon="-119.912407"><ele>2173.4</ele><time>2026-09-27T16:12:39Z</time></trkpt>
<trkpt lat="39.117231" lon="-119.912482"><ele>2171.6</ele><time>2026-09-27T16:12:42Z</time></trkpt>
<trkpt lat="39.117000" lon="-119.912504"><ele>2172.6</ele><time>2026-09-27T16:12:46Z</time></trkpt>
<trkpt lat="39.116770" lon="-119.912560"><ele>2172.0</ele><time>2026-09-27T16:12:50Z</time></trkpt>
<trkpt lat="39.116547" lon="-119.912585"><ele>2167.6</ele><time>2026-09-27T16:12:53Z</time></trkpt>
<trkpt lat="39.116294" lon="-119.912647"><ele>2169.7</ele><time>2026-09-27T16:12:57Z</time></trkpt>
<trkpt lat="39.116112" lon="-119.912767"><ele>2168.5</ele><time>2026-09-27T16:13:01Z</time></trkpt>
<trkpt lat="39.115819" lon="-119.912795"><ele>2166.1</ele><time>2026-09-27T16:13:05Z</time></trkpt>
<trkpt lat="39.115664" lon="-119.912848"><ele>2167.4</ele><time>2026-09-27T16:13:08Z</time></trkpt>
<trkpt lat="39.115416" lon="-119.912850"><ele>2165.1</ele><time>2026-09-27T16:13:12Z</time></trkpt>
<trkpt lat="39.115200" lon="-119.912959"><ele>2165.8</ele><time>2026-09-27T16:13:16Z</time></trkpt>
<trkpt lat="39.114963" lon="-119.913018"><ele>2165.4</ele><time>2026-09-27T16:13:19Z</time></trkpt>
<trkpt lat="39.114773" lon="-119.913103"><ele>2160.3</ele><time>2026-09-27T16:13:23Z</time></trkpt>
<trkpt lat="39.114519" lon="-119.913118"><ele>2162.7</ele><time>2026-09-27T16:13:27Z</time></trkpt>
<trkpt lat="39.114349" lon="-119.913156"><ele>2160.1</ele><time>2026-09-27T16:13:30Z</time></trkpt>
<trkpt lat="39.114135" lon="-119.913241"><ele>2162.0</ele><time>2026-09-27T16:13:34Z</time></trkpt>
<trkpt lat="39.113834" lon="-119.913288"><ele>2159.9</ele><time>2026-09-27T16:13:38Z</time></trkpt>
<trkpt lat="39.113643" lon="-119.913335"><ele>2159.0</ele><time>2026-09-27T16:13:42Z</time></trkpt>
<trkpt lat="39.113456" lon="-119.913404"><ele>2157.1</ele><time>2026-09-27T16:13:45Z</time></trkpt>
<trkpt lat="39.113218" lon="-119.913449"><ele>2155.1</ele><time>2026-09-27T16:13:49Z</time></trkpt>
<trkpt lat="39.113019" lon="-119.913501"><ele>2155.9</ele><time>2026-09-27T16:13:52Z</time></trkpt>
<trkpt lat="39.112792" lon="-119.913578"><ele>2154.7</ele><time>2026-09-27T16:13:56Z</time></trkpt>
<trkpt lat="39.112544" lon="-119.913626"><ele>2153.9</ele><time>2026-09-27T16:14:00Z</time></trkpt>
<trkpt lat="39.112266" lon="-119.913680"><ele>2152.2</ele><time>2026-09-27T16:14:04Z</time></trkpt>
<trkpt lat="39.112102" lon="-119.913704"><ele>2154.1</ele><time>2026-09-27T16:14:07Z</time></trkpt>
<trkpt lat="39.111899" lon="-119.913771"><ele>2149.3</ele><time>2026-09-27T16:14:11Z</time></trkpt>
<trkpt lat="39.111661" lon="-119.913831"><ele>2150.3</ele><time>2026-09-27T16:14:15Z</time></trkpt>
<trkpt lat="39.111447" lon="-119.913906"><ele>2149.5</ele><time>2026-09-27T16:14:19Z</time></trkpt>
<trkpt lat="39.111204" lon="-119.913945"><ele>2149.4</ele><time>2026-09-27T16:14:23Z</time></trkpt>
<trkpt lat="39.110984" lon="-119.914009"><ele>2146.9</ele><time>2026-09-27T16:14:26Z</time></trkpt>
<trkpt lat="39.110784" lon="-119.914035"><ele>2146.1</ele><time>2026-09-27T16:14:30Z</time></trkpt>
<trkpt lat="39.110530" lon="-119.914101"><ele>2146.2</ele><time>2026-09-27T16:14:34Z</time></trkpt>
<trkpt lat="39.110339" lon="-119.914156"><ele>2144.5</ele><time>2026-09-27T16:14:37Z</time></trkpt>
<trkpt lat="39.110118" lon="-119.914238"><ele>2142.0</ele><time>2026-09-27T16:14:41Z</time></trkpt>
<trkpt lat="39.109858" lon="-119.914264"><ele>2143.3</ele><time>2026-09-27T16:14:44Z</time></trkpt>
<trkpt lat="39.109664" lon="-119.914347"><ele>2141.8</ele><time>2026-09-27T16:14:48Z</time></trkpt>
<trkpt lat="39.109482" lon="-119.914385"><ele>2140.9</ele><time>2026-09-27T16:14:52Z</time></trkpt>
<trkpt lat="39.109214" lon="-119.914434"><ele>2141.9</ele><time>2026-09-27T16:14:56Z</time></trkpt>
<trkpt lat="39.108997" lon="-119.914481"><ele>2141.0</ele><time>2026-09-27T16:14:59Z</time></trkpt>
<trkpt lat="39.108801" lon="-119.914646"><ele>2141.0</ele><time>2026-09-27T16:15:04Z</time></trkpt>
<trkpt lat="39.108640" lon="-119.914800"><ele>2139.6</ele><time>2026-09-27T16:15:08Z</time></trkpt>
<trkpt lat="39.108422" lon="-119.914945"><ele>2137.7</ele><time>2026-09-27T16:15:12Z</time></trkpt>
<trkpt lat="39.108213" lon="-119.915102"><ele>2137.2</ele><time>2026-09-27T16:15:16Z</time></trkpt>
<trkpt lat="39.108041" lon="-119.915259"><ele>2135.0</ele><time>2026-09-27T16:15:21Z</time></trkpt>
<trkpt lat="39.107856" lon="-119.915390"><ele>2137.5</ele><time>2026-09-27T16:15:25Z</time></trkpt>
<trkpt lat="39.107614" lon="-119.915515"><ele>2136.8</ele><time>2026-09-27T16:15:28Z</time></trkpt>
<trkpt lat="39.107505" lon="-119.915697"><ele>2136.7</ele><time>2026-09-27T16:15:33Z</time></trkpt>
<trkpt lat="39.107260" lon="-119.915865"><ele>2136.1</ele><time>2026-09-27T16:15:37Z</time></trkpt>
<trkpt lat="39.107056" lon="-119.915999"><ele>2135.9</ele><time>2026-09-27T16:15:41Z</time></trkpt>
<trkpt lat="39.106886" lon="-119.916157"><ele>2132.2</ele><time>2026-09-27T16:15:45Z</time></trkpt>
<trkpt lat="39.106684" lon="-119.916297"><ele>2132.0</ele><time>2026-09-27T16:15:50Z</time></trkpt>
<trkpt lat="39.106477" lon="-119.916457"><ele>2132.2</ele><time>2026-09-27T16:15:54Z</time></trkpt>
<trkpt lat="39.106305" lon="-119.916590"><ele>2132.0</ele><time>2026-09-27T16:15:58Z</time></trkpt>
<trkpt lat="39.106286" lon="-119.916605"><ele>2132.0</ele><time>2026-09-27T16:16:28Z</time></trkpt>
<trkpt lat="39.106292" lon="-119.916618"><ele>2132.0</ele><time>2026-09-27T16:16:58Z</time></trkpt>
<trkpt lat="39.106293" lon="-119.916617"><ele>2132.0</ele><time>2026-09-27T16:17:28Z</time></trkpt>
<trkpt lat="39.106300" lon="-119.916584"><ele>2132.0</ele><time>2026-09-27T16:17:58Z</time></trkpt>
<trkpt lat="39.106307" lon="-119.916598"><ele>2132.0</ele><time>2026-09-27T16:18:28Z</time></trkpt>
<trkpt lat="39.106310" lon="-119.916603"><ele>2132.0</ele><time>2026-09-27T16:18:58Z</time></trkpt>
<trkpt lat="39.106284" lon="-119.916636"><ele>2132.0</ele><time>2026-09-27T16:19:28Z</time></trkpt>
<trkpt lat="39.106325" lon="-119.916594"><ele>2129.5</ele><time>2026-09-27T16:19:58Z</time></trkpt>
<trkpt lat="39.105611" lon="-119.915438"><ele>2132.0</ele><time>2026-09-27T16:20:04Z</time></trkpt>
<trkpt lat="39.104906" lon="-119.914312"><ele>2129.5</ele><time>2026-09-27T16:20:09Z</time></trkpt>
<trkpt lat="39.104195" lon="-119.913164"><ele>2127.4</ele><time>2026-09-27T16:20:15Z</time></trkpt>
<trkpt lat="39.103485" lon="-119.911996"><ele>2125.5</ele><time>2026-09-27T16:20:21Z</time></trkpt>
<trkpt lat="39.103074" lon="-119.910724"><ele>2121.9</ele><time>2026-09-27T16:20:27Z</time></trkpt>
<trkpt lat="39.102655" lon="-119.909379"><ele>2119.0</ele><time>2026-09-27T16:20:33Z</time></trkpt>
<trkpt lat="39.102248" lon="-119.908073"><ele>2114.1</ele><time>2026-09-27T16:20:39Z</time></trkpt>
<trkpt lat="39.101798" lon="-119.906798"><ele>2110.3</ele><time>2026-09-27T16:20:45Z</time></trkpt>
<trkpt lat="39.101357" lon="-119.905449"><ele>2107.7</ele><time>2026-09-27T16:20:51Z</time></trkpt>
<trkpt lat="39.100962" lon="-119.904151"><ele>2103.3</ele><time>2026-09-27T16:20:57Z</time></trkpt>
<trkpt lat="39.100555" lon="-119.902868"><ele>2101.6</ele><time>2026-09-27T16:21:03Z</time></trkpt>
<trkpt lat="39.100120" lon="-119.901535"><ele>2096.5</ele><time>2026-09-27T16:21:10Z</time></trkpt>
<trkpt lat="39.099692" lon="-119.900239"><ele>2093.4</ele><time>2026-09-27T16:21:15Z</time></trkpt>
<trkpt lat="39.099250" lon="-119.898915"><ele>2089.5</ele><time>2026-09-27T16:21:21Z</time></trkpt>
<trkpt lat="39.098866" lon="-119.897622"><ele>2088.6</ele><time>2026-09-27T16:21:28Z</time></trkpt>
<trkpt lat="39.098410" lon="-119.896294"><ele>2082.0</ele><time>2026-09-27T16:21:33Z</time></trkpt>
<trkpt lat="39.098029" lon="-119.894990"><ele>2078.7</ele><time>2026-09-27T16:21:39Z</time></trkpt>
<trkpt lat="39.097733" lon="-119.893588"><ele>2074.2</ele><time>2026-09-27T16:21:45Z</time></trkpt>
<trkpt lat="39.097434" lon="-119.892257"><ele>2065.4</ele><time>2026-09-27T16:21:51Z</time></trkpt>
<trkpt lat="39.097192" lon="-119.890850"><ele>2057.2</ele><time>2026-09-27T16:21:57Z</time></trkpt>
<trkpt lat="39.096906" lon="-119.889438"><ele>2050.4</ele><time>2026-09-27T16:22:03Z</time></trkpt>
<trkpt lat="39.096618" lon="-119.888035"><ele>2045.3</ele><time>2026-09-27T16:22:09Z</time></trkpt>
<trkpt lat="39.096334" lon="-119.886652"><ele>2035.4</ele><time>2026-09-27T16:22:15Z</time></trkpt>
<trkpt lat="39.096053" lon="-119.885288"><ele>2030.3</ele><time>2026-09-27T16:22:21Z</time></trkpt>
<trkpt lat="39.095794" lon="-119.883869"><ele>2021.1</ele><time>2026-09-27T16:22:27Z</time></trkpt>
<trkpt lat="39.095532" lon="-119.882499"><ele>2014.3</ele><time>2026-09-27T16:22:32Z</time></trkpt>
<trkpt lat="39.095204" lon="-119.881124"><ele>2008.0</ele><time>2026-09-27T16:22:38Z</time></trkpt>
<trkpt lat="39.094907" lon="-119.879727"><ele>2001.7</ele><time>2026-09-27T16:22:45Z</time></trkpt>
<trkpt lat="39.094682" lon="-119.878327"><ele>1993.9</ele><time>2026-09-27T16:22:51Z</time></trkpt>
<trkpt lat="39.094418" lon="-119.876931"><ele>1986.8</ele><time>2026-09-27T16:22:57Z</time></trkpt>
<trkpt lat="39.094103" lon="-119.875546"><ele>1979.0</ele><time>2026-09-27T16:23:03Z</time></trkpt>
<trkpt lat="39.093835" lon="-119.874167"><ele>1971.2</ele><time>2026-09-27T16:23:09Z</time></trkpt>
<trkpt lat="39.093581" lon="-119.872781"><ele>1965.5</ele><time>2026-09-27T16:23:14Z</time></trkpt>
<trkpt lat="39.093292" lon="-119.871380"><ele>1958.6</ele><time>2026-09-27T16:23:21Z</time></trkpt>
<trkpt lat="39.093025" lon="-119.870014"><ele>1948.0</ele><time>2026-09-27T16:23:27Z</time></trkpt>
<trkpt lat="39.092566" lon="-119.868667"><ele>1942.2</ele><time>2026-09-27T16:23:33Z</time></trkpt>
<trkpt lat="39.092234" lon="-119.867327"><ele>1933.2</ele><time>2026-09-27T16:23:39Z</time></trkpt>
<trkpt lat="39.091786" lon="-119.866025"><ele>1922.2</ele><time>2026-09-27T16:23:46Z</time></trkpt>
<trkpt lat="39.091417" lon="-119.864636"><ele>1916.3</ele><time>2026-09-27T16:23:51Z</time></trkpt>
<trkpt lat="39.090971" lon="-119.863318"><ele>1908.7</ele><time>2026-09-27T16:23:57Z</time></trkpt>
<trkpt lat="39.090583" lon="-119.861981"><ele>1896.5</ele><time>2026-09-27T16:24:04Z</time></trkpt>
<trkpt lat="39.090228" lon="-119.860642"><ele>1889.7</ele><time>2026-09-27T16:24:10Z</time></trkpt>
<trkpt lat="39.089813" lon="-119.859362"><ele>1883.1</ele><time>2026-09-27T16:24:16Z</time></trkpt>
<trkpt lat="39.089373" lon="-119.858012"><ele>1872.0</ele><time>2026-09-27T16:24:22Z</time></trkpt>
<trkpt lat="39.088993" lon="-119.856671"><ele>1863.1</ele><time>2026-09-27T16:24:28Z</time></trkpt>
<trkpt lat="39.088589" lon="-119.855325"><ele>1854.6</ele><time>2026-09-27T16:24:34Z</time></trkpt>
<trkpt lat="39.088188" lon="-119.853995"><ele>1846.0</ele><time>2026-09-27T16:24:41Z</time></trkpt>
<trkpt lat="39.087799" lon="-119.852645"><ele>1835.7</ele><time>2026-09-27T16:24:46Z</time></trkpt>
<trkpt lat="39.087394" lon="-119.851305"><ele>1827.4</ele><time>2026-09-27T16:24:52Z</time></trkpt>
<trkpt lat="39.086998" lon="-119.850027"><ele>1820.7</ele><time>2026-09-27T16:24:58Z</time></trkpt>
<trkpt lat="39.086510" lon="-119.848721"><ele>1811.1</ele><time>2026-09-27T16:25:04Z</time></trkpt>
<trkpt lat="39.086021" lon="-119.847436"><ele>1803.5</ele><time>2026-09-27T16:25:10Z</time></trkpt>
<trkpt lat="39.085490" lon="-119.846123"><ele>1796.9</ele><time>2026-09-27T16:25:16Z</time></trkpt>
<trkpt lat="39.084992" lon="-119.844807"><ele>1785.2</ele><time>2026-09-27T16:25:22Z</time></trkpt>
<trkpt lat="39.084503" lon="-119.843578"><ele>1776.4</ele><time>2026-09-27T16:25:28Z</time></trkpt>
<trkpt lat="39.083975" lon="-119.842330"><ele>1767.3</ele><time>2026-09-27T16:25:34Z</time></trkpt>
<trkpt lat="39.083490" lon="-119.841013"><ele>1758.6</ele><time>2026-09-27T16:25:40Z</time></trkpt>
<trkpt lat="39.083035" lon="-119.839703"><ele>1753.1</ele><time>2026-09-27T16:25:47Z</time></trkpt>
<trkpt lat="39.082525" lon="-119.838414"><ele>1741.8</ele><time>2026-09-27T16:25:53Z</time></trkpt>
<trkpt lat="39.082019" lon="-119.837168"><ele>1734.0</ele><time>2026-09-27T16:25:59Z</time></trkpt>
<trkpt lat="39.081510" lon="-119.835849"><ele>1726.9</ele><time>2026-09-27T16:26:05Z</time></trkpt>
<trkpt lat="39.080984" lon="-119.834562"><ele>1716.4</ele><time>2026-09-27T16:26:11Z</time></trkpt>
<trkpt lat="39.080485" lon="-119.833289"><ele>1707.0</ele><time>2026-09-27T16:26:18Z</time></trkpt>
<trkpt lat="39.080002" lon="-119.832009"><ele>1699.7</ele><time>2026-09-27T16:26:24Z</time></trkpt>
<trkpt lat="39.079455" lon="-119.830697"><ele>1691.9</ele><time>2026-09-27T16:26:30Z</time></trkpt>
<trkpt lat="39.078927" lon="-119.829368"><ele>1683.5</ele><time>2026-09-27T16:26:36Z</time></trkpt>
<trkpt lat="39.078385" lon="-119.828087"><ele>1678.8</ele><time>2026-09-27T16:26:42Z</time></trkpt>
<trkpt lat="39.077844" lon="-119.826760"><ele>1668.2</ele><time>2026-09-27T16:26:48Z</time></trkpt>
<trkpt lat="39.077333" lon="-119.825468"><ele>1661.6</ele><time>2026-09-27T16:26:55Z</time></trkpt>
<trkpt lat="39.076759" lon="-119.824140"><ele>1654.2</ele><time>2026-09-27T16:27:01Z</time></trkpt>
<trkpt lat="39.076258" lon="-119.822844"><ele>1646.4</ele><time>2026-09-27T16:27:07Z</time></trkpt>
<trkpt lat="39.075709" lon="-119.821576"><ele>1639.6</ele><time>2026-09-27T16:27:12Z</time></trkpt>
<trkpt lat="39.075172" lon="-119.820249"><ele>1632.9</ele><time>2026-09-27T16:27:18Z</time></trkpt>
<trkpt lat="39.074595" lon="-119.818924"><ele>1622.0</ele><time>2026-09-27T16:27:25Z</time></trkpt>
<trkpt lat="39.074061" lon="-119.817649"><ele>1616.2</ele><time>2026-09-27T16:27:30Z</time></trkpt>
<trkpt lat="39.073552" lon="-119.816277"><ele>1607.1</ele><time>2026-09-27T16:27:36Z</time></trkpt>
<trkpt lat="39.072993" lon="-119.815006"><ele>1597.9</ele><time>2026-09-27T16:27:43Z</time></trkpt>
<trkpt lat="39.072262" lon="-119.813791"><ele>1593.7</ele><time>2026-09-27T16:27:49Z</time></trkpt>
<trkpt lat="39.071553" lon="-119.812616"><ele>1589.9</ele><time>2026-09-27T16:27:55Z</time></trkpt>
<trkpt lat="39.070796" lon="-119.811445"><ele>1583.7</ele><time>2026-09-27T16:28:02Z</time></trkpt>
<trkpt lat="39.070101" lon="-119.810249"><ele>1577.7</ele><time>2026-09-27T16:28:07Z</time></trkpt>
<trkpt lat="39.069393" lon="-119.809066"><ele>1574.7</ele><time>2026-09-27T16:28:14Z</time></trkpt>
<trkpt lat="39.068623" lon="-119.807943"><ele>1567.5</ele><time>2026-09-27T16:28:20Z</time></trkpt>
<trkpt lat="39.067908" lon="-119.806714"><ele>1563.0</ele><time>2026-09-27T16:28:26Z</time></trkpt>
<trkpt lat="39.067183" lon="-119.805551"><ele>1557.3</ele><time>2026-09-27T16:28:31Z</time></trkpt>
<trkpt lat="39.066488" lon="-119.804381"><ele>1551.8</ele><time>2026-09-27T16:28:37Z</time></trkpt>
<trkpt lat="39.065739" lon="-119.803198"><ele>1546.6</ele><time>2026-09-27T16:28:44Z</time></trkpt>
<trkpt lat="39.065000" lon="-119.802000"><ele>1540.0</ele><time>2026-09-27T16:28:50Z</time></trkpt>
</trkseg></trk>
</gpx>